start=new Date('2023-02-09T00:00:00.000Z').valueOf();
sats=[{"OBJECT_TYPE":"PAYLOAD","REF_FRAME":"TEME","COUNTRY_CODE":"US","RA_OF_ASC_NODE":"97.9310","FILE":"3780324","REV_AT_EPOCH":"15448","GP_ID":"224820072","ELEMENT_SET_NO":"999","INCLINATION":"53.0563","TLE_LINE1":"1 45553U 20025Y   23039.47062048  .00000276  00000-0  37394-4 0  9994","DECAY_DATE":null,"MEAN_MOTION_DDOT":"0.0000000000000","ARG_OF_PERICENTER":"101.5640","MEAN_ANOMALY":"258.5519","EPHEMERIS_TYPE":"0","EPOCH":"2023-02-08T11:17:41.609472","BSTAR":"0.00003739400000","OBJECT_ID":"2020-025Y","SEMIMAJOR_AXIS":"6925.343","CENTER_NAME":"EARTH","TIME_SYSTEM":"UTC","MEAN_MOTION":"15.06401794","RCS_SIZE":"LARGE","MEAN_ELEMENT_THEORY":"SGP4","APOAPSIS":"548.256","TLE_LINE2":"2 45553  53.0563  97.9310 0001513 101.5640 258.5519 15.06401794154486","OBJECT_NAME":"STARLINK-1323","MEAN_MOTION_DOT":"0.00000276","PERIAPSIS":"546.160","CLASSIFICATION_TYPE":"U","ECCENTRICITY":"0.00015130","SITE":"AFETR","LAUNCH_DATE":"2020-04-22","NORAD_CAT_ID":"45553","PERIOD":"95.592"},{"EPOCH":"2023-02-08T11:05:42.938592","EPHEMERIS_TYPE":"0","MEAN_ANOMALY":"273.0267","TLE_LINE2":"2 45554  53.0540  97.9580 0001212  87.0860 273.0267 15.06397342155777","RCS_SIZE":"LARGE","MEAN_ELEMENT_THEORY":"SGP4","APOAPSIS":"548.061","TIME_SYSTEM":"UTC","MEAN_MOTION":"15.06397342","BSTAR":"0.00002416500000","CENTER_NAME":"EARTH","SEMIMAJOR_AXIS":"6925.357","OBJECT_ID":"2020-025Z","MEAN_MOTION_DOT":"0.00000079","OBJECT_NAME":"STARLINK-1325","NORAD_CAT_ID":"45554","PERIOD":"95.592","LAUNCH_DATE":"2020-04-22","SITE":"AFETR","ECCENTRICITY":"0.00012120","CLASSIFICATION_TYPE":"U","PERIAPSIS":"546.382","COUNTRY_CODE":"US","OBJECT_TYPE":"PAYLOAD","REF_FRAME":"TEME","ELEMENT_SET_NO":"999","FILE":"3780324","REV_AT_EPOCH":"15577","GP_ID":"224820822","RA_OF_ASC_NODE":"97.9580","MEAN_MOTION_DDOT":"0.0000000000000","ARG_OF_PERICENTER":"87.0860","DECAY_DATE":null,"INCLINATION":"53.0540","TLE_LINE1":"1 45554U 20025Z   23039.46230253  .00000079  00000-0  24165-4 0  9992"},{"RA_OF_ASC_NODE":"97.2279","ELEMENT_SET_NO":"999","GP_ID":"224856388","FILE":"3780893","REV_AT_EPOCH":"15579","REF_FRAME":"TEME","OBJECT_TYPE":"PAYLOAD","COUNTRY_CODE":"US","TLE_LINE1":"1 45555U 20025AA  23039.62542469  .00034817  00000-0  23434-2 0  9999","INCLINATION":"53.0520","ARG_OF_PERICENTER":"93.3505","MEAN_MOTION_DDOT":"0.0000000000000","DECAY_DATE":null,"MEAN_MOTION":"15.06422189","TIME_SYSTEM":"UTC","SEMIMAJOR_AXIS":"6925.281","CENTER_NAME":"EARTH","OBJECT_ID":"2020-025AA","BSTAR":"0.00234340000000","TLE_LINE2":"2 45555  53.0520  97.2279 0001221  93.3505 266.7624 15.06422189155796","MEAN_ELEMENT_THEORY":"SGP4","APOAPSIS":"547.991","RCS_SIZE":"LARGE","MEAN_ANOMALY":"266.7624","EPOCH":"2023-02-08T15:00:36.693216","EPHEMERIS_TYPE":"0","ECCENTRICITY":"0.00012210","SITE":"AFETR","CLASSIFICATION_TYPE":"U","PERIAPSIS":"546.300","PERIOD":"95.591","NORAD_CAT_ID":"45555","LAUNCH_DATE":"2020-04-22","OBJECT_NAME":"STARLINK-1327","MEAN_MOTION_DOT":"0.00034817"},{"MEAN_MOTION_DOT":"0.00002624","OBJECT_NAME":"STARLINK-1334","NORAD_CAT_ID":"45556","PERIOD":"95.592","LAUNCH_DATE":"2020-04-22","ECCENTRICITY":"0.00009950","SITE":"AFETR","PERIAPSIS":"546.520","CLASSIFICATION_TYPE":"U","EPOCH":"2023-02-08T11:12:22.745088","EPHEMERIS_TYPE":"0","MEAN_ANOMALY":"273.5382","TLE_LINE2":"2 45556  53.0532  97.9377 0000995  86.5721 273.5382 15.06401367155777","RCS_SIZE":"LARGE","MEAN_ELEMENT_THEORY":"SGP4","APOAPSIS":"547.898","TIME_SYSTEM":"UTC","MEAN_MOTION":"15.06401367","BSTAR":"0.00019495000000","SEMIMAJOR_AXIS":"6925.344","CENTER_NAME":"EARTH","OBJECT_ID":"2020-025AB","MEAN_MOTION_DDOT":"0.0000000000000","ARG_OF_PERICENTER":"86.5721","DECAY_DATE":null,"INCLINATION":"53.0532","TLE_LINE1":"1 45556U 20025AB  23039.46692992  .00002624  00000-0  19495-3 0  9993","COUNTRY_CODE":"US","OBJECT_TYPE":"PAYLOAD","REF_FRAME":"TEME","ELEMENT_SET_NO":"999","FILE":"3780324","REV_AT_EPOCH":"15577","GP_ID":"224819820","RA_OF_ASC_NODE":"97.9377"},{"ECCENTRICITY":"0.00013630","SITE":"AFETR","PERIAPSIS":"546.258","CLASSIFICATION_TYPE":"U","NORAD_CAT_ID":"45557","PERIOD":"95.592","LAUNCH_DATE":"2020-04-22","OBJECT_NAME":"STARLINK-1336","MEAN_MOTION_DOT":"0.00000538","TIME_SYSTEM":"UTC","MEAN_MOTION":"15.06403687","BSTAR":"0.00005501400000","SEMIMAJOR_AXIS":"6925.337","CENTER_NAME":"EARTH","OBJECT_ID":"2020-025AC","TLE_LINE2":"2 45557  53.0574  97.9042 0001363  95.0234 265.0910 15.06403687155777","RCS_SIZE":"LARGE","MEAN_ELEMENT_THEORY":"SGP4","APOAPSIS":"548.146","MEAN_ANOMALY":"265.0910","EPOCH":"2023-02-08T11:22:59.788704","EPHEMERIS_TYPE":"0","INCLINATION":"53.0574","TLE_LINE1":"1 45557U 20025AC  23039.47430311  .00000538  00000-0  55014-4 0  9990","ARG_OF_PERICENTER":"95.0234","MEAN_MOTION_DDOT":"0.0000000000000","DECAY_DATE":null,"RA_OF_ASC_NODE":"97.9042","ELEMENT_SET_NO":"999","REV_AT_EPOCH":"15577","FILE":"3780324","GP_ID":"224820572","OBJECT_TYPE":"PAYLOAD","REF_FRAME":"TEME","COUNTRY_CODE":"US"},{"MEAN_ANOMALY":"246.5391","EPHEMERIS_TYPE":"0","EPOCH":"2023-02-08T13:46:18.182784","OBJECT_ID":"2020-025AD","SEMIMAJOR_AXIS":"6925.330","CENTER_NAME":"EARTH","BSTAR":"-0.00001918400000","MEAN_MOTION":"15.06405939","TIME_SYSTEM":"UTC","APOAPSIS":"548.186","MEAN_ELEMENT_THEORY":"SGP4","RCS_SIZE":"LARGE","TLE_LINE2":"2 45558  53.0546  97.4603 0001430 113.5748 246.5391 15.06405939155786","OBJECT_NAME":"STARLINK-1342","MEAN_MOTION_DOT":"-0.00000567","PERIAPSIS":"546.205","CLASSIFICATION_TYPE":"U","SITE":"AFETR","ECCENTRICITY":"0.00014300","LAUNCH_DATE":"2020-04-22","PERIOD":"95.592","NORAD_CAT_ID":"45558","REF_FRAME":"TEME","OBJECT_TYPE":"PAYLOAD","COUNTRY_CODE":"US","RA_OF_ASC_NODE":"97.4603","GP_ID":"224855637","REV_AT_EPOCH":"15578","FILE":"3780893","ELEMENT_SET_NO":"999","TLE_LINE1":"1 45558U 20025AD  23039.57382156 -.00000567  00000-0 -19184-4 0  9997","INCLINATION":"53.0546","DECAY_DATE":null,"MEAN_MOTION_DDOT":"0.0000000000000","ARG_OF_PERICENTER":"113.5748"},{"RA_OF_ASC_NODE":"97.8571","REV_AT_EPOCH":"15577","FILE":"3780324","GP_ID":"224819073","ELEMENT_SET_NO":"999","OBJECT_TYPE":"PAYLOAD","REF_FRAME":"TEME","COUNTRY_CODE":"US","INCLINATION":"53.0561","TLE_LINE1":"1 45559U 20025AE  23039.47334998  .00000453  00000-0  49264-4 0  9992","DECAY_DATE":null,"ARG_OF_PERICENTER":"96.7367","MEAN_MOTION_DDOT":"0.0000000000000","BSTAR":"0.00004926400000","CENTER_NAME":"EARTH","SEMIMAJOR_AXIS":"6925.326","OBJECT_ID":"2020-025AE","TIME_SYSTEM":"UTC","MEAN_MOTION":"15.06407257","RCS_SIZE":"LARGE","APOAPSIS":"548.047","MEAN_ELEMENT_THEORY":"SGP4","TLE_LINE2":"2 45559  53.0561  97.8571 0001235  96.7367 263.3762 15.06407257155777","MEAN_ANOMALY":"263.3762","EPHEMERIS_TYPE":"0","EPOCH":"2023-02-08T11:21:37.438272","CLASSIFICATION_TYPE":"U","PERIAPSIS":"546.336","SITE":"AFETR","ECCENTRICITY":"0.00012350","LAUNCH_DATE":"2020-04-22","NORAD_CAT_ID":"45559","PERIOD":"95.592","OBJECT_NAME":"STARLINK-1344","MEAN_MOTION_DOT":"0.00000453"},{"DECAY_DATE":null,"MEAN_MOTION_DDOT":"0.0000000000000","ARG_OF_PERICENTER":"95.0353","INCLINATION":"53.0533","TLE_LINE1":"1 45560U 20025AF  23039.39687878  .00000382  00000-0  44533-4 0  9998","REV_AT_EPOCH":"15530","FILE":"3780358","GP_ID":"224827417","ELEMENT_SET_NO":"999","RA_OF_ASC_NODE":"88.2488","COUNTRY_CODE":"US","OBJECT_TYPE":"PAYLOAD","REF_FRAME":"TEME","LAUNCH_DATE":"2020-04-22","NORAD_CAT_ID":"45560","PERIOD":"95.592","CLASSIFICATION_TYPE":"U","PERIAPSIS":"546.322","SITE":"AFETR","ECCENTRICITY":"0.00012990","MEAN_MOTION_DOT":"0.00000382","OBJECT_NAME":"STARLINK-1346","RCS_SIZE":"LARGE","APOAPSIS":"548.121","MEAN_ELEMENT_THEORY":"SGP4","TLE_LINE2":"2 45560  53.0533  88.2488 0001299  95.0353 265.0784 15.06397476155309","BSTAR":"0.00004453300000","CENTER_NAME":"EARTH","SEMIMAJOR_AXIS":"6925.356","OBJECT_ID":"2020-025AF","TIME_SYSTEM":"UTC","MEAN_MOTION":"15.06397476","EPHEMERIS_TYPE":"0","EPOCH":"2023-02-08T09:31:30.326592","MEAN_ANOMALY":"265.0784"},{"MEAN_MOTION_DOT":"0.00111610","OBJECT_NAME":"STARLINK-1348","NORAD_CAT_ID":"45561","PERIOD":"94.097","LAUNCH_DATE":"2020-04-22","SITE":"AFETR","ECCENTRICITY":"0.00052570","PERIAPSIS":"471.224","CLASSIFICATION_TYPE":"U","EPOCH":"2023-02-08T06:08:49.379712","EPHEMERIS_TYPE":"0","MEAN_ANOMALY":"209.2172","TLE_LINE2":"2 45561  53.0665 346.8510 0005257 150.9121 209.2172 15.30330680157323","RCS_SIZE":"LARGE","APOAPSIS":"478.430","MEAN_ELEMENT_THEORY":"SGP4","TIME_SYSTEM":"UTC","MEAN_MOTION":"15.30330680","BSTAR":"0.00370800000000","SEMIMAJOR_AXIS":"6852.962","OBJECT_ID":"2020-025AG","CENTER_NAME":"EARTH","MEAN_MOTION_DDOT":"0.0000000000000","ARG_OF_PERICENTER":"150.9121","DECAY_DATE":null,"INCLINATION":"53.0665","TLE_LINE1":"1 45561U 20025AG  23039.25612708  .00111610  00000-0  37080-2 0  9998","COUNTRY_CODE":"US","OBJECT_TYPE":"PAYLOAD","REF_FRAME":"TEME","ELEMENT_SET_NO":"999","REV_AT_EPOCH":"15732","FILE":"3780324","GP_ID":"224820073","RA_OF_ASC_NODE":"346.8510"},{"SEMIMAJOR_AXIS":"6925.346","OBJECT_ID":"2020-025AH","CENTER_NAME":"EARTH","BSTAR":"0.00004352800000","MEAN_MOTION":"15.06400907","TIME_SYSTEM":"UTC","APOAPSIS":"547.971","MEAN_ELEMENT_THEORY":"SGP4","RCS_SIZE":"LARGE","TLE_LINE2":"2 45562  53.0554  98.1508 0001098  97.5865 262.5248 15.06400907155760","MEAN_ANOMALY":"262.5248","EPHEMERIS_TYPE":"0","EPOCH":"2023-02-08T10:03:22.748256","CLASSIFICATION_TYPE":"U","PERIAPSIS":"546.450","ECCENTRICITY":"0.00010980","SITE":"AFETR","LAUNCH_DATE":"2020-04-22","PERIOD":"95.592","NORAD_CAT_ID":"45562","OBJECT_NAME":"STARLINK-1354","MEAN_MOTION_DOT":"0.00000367","RA_OF_ASC_NODE":"98.1508","GP_ID":"224820823","FILE":"3780324","REV_AT_EPOCH":"15576","ELEMENT_SET_NO":"999","REF_FRAME":"TEME","OBJECT_TYPE":"PAYLOAD","COUNTRY_CODE":"US","TLE_LINE1":"1 45562U 20025AH  23039.41901329  .00000367  00000-0  43528-4 0  9999","INCLINATION":"53.0554","DECAY_DATE":null,"ARG_OF_PERICENTER":"97.5865","MEAN_MOTION_DDOT":"0.0000000000000"}];
